SL-16 R/B               
1 22566U 93016B   26037.11649283 -.00000041  00000+0  35935-5 0  9997
2 22566  71.0075 281.4981 0010134 357.6791   2.4283 14.15304048697701
COSMOS 2242             
1 22626U 93024A   26037.14246716  .00003131  00000+0  27322-3 0  9991
2 22626  82.5194 296.8892 0017750  54.3971 305.8902 14.96417133775670
SL-16 R/B               
1 22803U 93059B   26037.56228179  .00000257  00000+0  15088-3 0  9997
2 22803  70.9892  76.7711 0019490 259.1471 100.7459 14.17226597675124
ARIANE 40 R/B           
1 22830U 93061H   26037.62383764  .00000281  00000+0  11890-3 0  9993
2 22830  98.4982 107.1143 0010948  22.2999 337.8659 14.32844359689657
COSMOS 2278             
1 23087U 94023A   26037.62055790 -.00000182  00000+0 -70263-4 0  9994
2 23087  71.0503 240.0998 0006524  72.0562 288.1271 14.14364235640416
SL-16 R/B               
1 23088U 94023B   26037.61043857 -.00000030  00000+0  91240-5 0  9995
2 23088  70.9999 136.1589 0004439 314.3089  45.7669 14.15003518641698
SL-16 R/B               
1 23343U 94074B   26037.62267028  .00000684  00000+0  98468-4 0  9996
2 23343  97.7149  69.6930 0005825 334.5534 139.0002 14.79370568682656
SL-16 R/B               
1 23405U 94077B   26037.03887063 -.00000025  00000+0  11620-4 0  9995
2 23405  70.9814  59.0768 0004413 238.9694 121.0996 14.15556650611759
ARIANE 40+ R/B          
1 23561U 95021B   26037.18881965  .00000409  00000+0  14444-3 0  9990
2 23561  98.4562 109.0880 0005925 229.3307 154.3458 14.39748937614710
SL-16 R/B               
1 23705U 95058B   26037.60965332  .00000308  00000+0  18196-3 0  9994
2 23705  71.0188 245.5068 0012406 176.6561 183.4647 14.15491182563451
SL-16 R/B               
1 24298U 96051B   26037.65045073  .00000074  00000+0  66487-4 0  9999
2 24298  70.7565 240.9383 0017683 191.3503 168.7221 14.12406746517266
ORBVIEW 2 (SEASTAR)     
1 24883U 97037A   26036.98197502  .00000415  00000+0  16052-3 0  9995
2 24883  98.8511 200.4637 0002832 136.7634 223.3773 14.35469739503923
