CCSDS_OMM_VERS = 2.0
CREATION_DATE  = 
ORIGINATOR     = 

OBJECT_NAME    = SL-16 R/B
OBJECT_ID      = 1993-016B
CENTER_NAME    = EARTH
REF_FRAME      = TEME
TIME_SYSTEM    = UTC
MEAN_ELEMENT_THEORY = SGP/SGP4

EPOCH          = 2026-02-06T02:47:44.980512
MEAN_MOTION    = 14.15304048
ECCENTRICITY   = .00101348
INCLINATION    = 71.0075
RA_OF_ASC_NODE = 281.4981
ARG_OF_PERICENTER = 357.6791
MEAN_ANOMALY   = 2.4283

EPHEMERIS_TYPE = 0
CLASSIFICATION_TYPE = U
NORAD_CAT_ID   = 22566
ELEMENT_SET_NO = 999
REV_AT_EPOCH   = 69770
BSTAR          = .3593512E-5
MEAN_MOTION_DOT = -.41E-6
MEAN_MOTION_DDOT = 0

CCSDS_OMM_VERS = 2.0
CREATION_DATE  = 
ORIGINATOR     = 

OBJECT_NAME    = COSMOS 2242
OBJECT_ID      = 1993-024A
CENTER_NAME    = EARTH
REF_FRAME      = TEME
TIME_SYSTEM    = UTC
MEAN_ELEMENT_THEORY = SGP/SGP4

EPOCH          = 2026-02-06T03:25:09.162624
MEAN_MOTION    = 14.96417133
ECCENTRICITY   = .00177505
INCLINATION    = 82.5194
RA_OF_ASC_NODE = 296.8892
ARG_OF_PERICENTER = 54.3971
MEAN_ANOMALY   = 305.8902

EPHEMERIS_TYPE = 0
CLASSIFICATION_TYPE = U
NORAD_CAT_ID   = 22626
ELEMENT_SET_NO = 999
REV_AT_EPOCH   = 77567
BSTAR          = .27322453E-3
MEAN_MOTION_DOT = .3131E-4
MEAN_MOTION_DDOT = 0

CCSDS_OMM_VERS = 2.0
CREATION_DATE  = 
ORIGINATOR     = 

OBJECT_NAME    = SL-16 R/B
OBJECT_ID      = 1993-059B
CENTER_NAME    = EARTH
REF_FRAME      = TEME
TIME_SYSTEM    = UTC
MEAN_ELEMENT_THEORY = SGP/SGP4

EPOCH          = 2026-02-06T13:29:41.146656
MEAN_MOTION    = 14.17226597
ECCENTRICITY   = .00194908
INCLINATION    = 70.9892
RA_OF_ASC_NODE = 76.7711
ARG_OF_PERICENTER = 259.1471
MEAN_ANOMALY   = 100.7459

EPHEMERIS_TYPE = 0
CLASSIFICATION_TYPE = U
NORAD_CAT_ID   = 22803
ELEMENT_SET_NO = 999
REV_AT_EPOCH   = 67512
BSTAR          = .15088216E-3
MEAN_MOTION_DOT = .257E-5
MEAN_MOTION_DDOT = 0

CCSDS_OMM_VERS = 2.0
CREATION_DATE  = 
ORIGINATOR     = 

OBJECT_NAME    = ARIANE 40 R/B
OBJECT_ID      = 1993-061H
CENTER_NAME    = EARTH
REF_FRAME      = TEME
TIME_SYSTEM    = UTC
MEAN_ELEMENT_THEORY = SGP/SGP4

EPOCH          = 2026-02-06T14:58:19.572096
MEAN_MOTION    = 14.32844359
ECCENTRICITY   = .00109487
INCLINATION    = 98.4982
RA_OF_ASC_NODE = 107.1143
ARG_OF_PERICENTER = 22.2999
MEAN_ANOMALY   = 337.8659

EPHEMERIS_TYPE = 0
CLASSIFICATION_TYPE = U
NORAD_CAT_ID   = 22830
ELEMENT_SET_NO = 999
REV_AT_EPOCH   = 68965
BSTAR          = .11890497E-3
MEAN_MOTION_DOT = .281E-5
MEAN_MOTION_DDOT = 0

CCSDS_OMM_VERS = 2.0
CREATION_DATE  = 
ORIGINATOR     = 

OBJECT_NAME    = COSMOS 2278
OBJECT_ID      = 1994-023A
CENTER_NAME    = EARTH
REF_FRAME      = TEME
TIME_SYSTEM    = UTC
MEAN_ELEMENT_THEORY = SGP/SGP4

EPOCH          = 2026-02-06T14:53:36.202560
MEAN_MOTION    = 14.14364235
ECCENTRICITY   = .00065247
INCLINATION    = 71.0503
RA_OF_ASC_NODE = 240.0998
ARG_OF_PERICENTER = 72.0562
MEAN_ANOMALY   = 288.1271

EPHEMERIS_TYPE = 0
CLASSIFICATION_TYPE = U
NORAD_CAT_ID   = 23087
ELEMENT_SET_NO = 999
REV_AT_EPOCH   = 64041
BSTAR          = -.70262768E-4
MEAN_MOTION_DOT = -.182E-5
MEAN_MOTION_DDOT = 0

CCSDS_OMM_VERS = 2.0
CREATION_DATE  = 
ORIGINATOR     = 

OBJECT_NAME    = SL-16 R/B
OBJECT_ID      = 1994-023B
CENTER_NAME    = EARTH
REF_FRAME      = TEME
TIME_SYSTEM    = UTC
MEAN_ELEMENT_THEORY = SGP/SGP4

EPOCH          = 2026-02-06T14:39:01.892448
MEAN_MOTION    = 14.15003518
ECCENTRICITY   = .00044397
INCLINATION    = 70.9999
RA_OF_ASC_NODE = 136.1589
ARG_OF_PERICENTER = 314.3089
MEAN_ANOMALY   = 45.7669

EPHEMERIS_TYPE = 0
CLASSIFICATION_TYPE = U
NORAD_CAT_ID   = 23088
ELEMENT_SET_NO = 999
REV_AT_EPOCH   = 64169
BSTAR          = .9123956E-5
MEAN_MOTION_DOT = -.3E-6
MEAN_MOTION_DDOT = 0

CCSDS_OMM_VERS = 2.0
CREATION_DATE  = 
ORIGINATOR     = 

OBJECT_NAME    = SL-16 R/B
OBJECT_ID      = 1994-074B
CENTER_NAME    = EARTH
REF_FRAME      = TEME
TIME_SYSTEM    = UTC
MEAN_ELEMENT_THEORY = SGP/SGP4

EPOCH          = 2026-02-06T14:56:38.712192
MEAN_MOTION    = 14.79370568
ECCENTRICITY   = .00058257
INCLINATION    = 97.7149
RA_OF_ASC_NODE = 69.6930
ARG_OF_PERICENTER = 334.5534
MEAN_ANOMALY   = 139.0002

EPHEMERIS_TYPE = 0
CLASSIFICATION_TYPE = U
NORAD_CAT_ID   = 23343
ELEMENT_SET_NO = 999
REV_AT_EPOCH   = 68265
BSTAR          = .98468061E-4
MEAN_MOTION_DOT = .684E-5
MEAN_MOTION_DDOT = 0

CCSDS_OMM_VERS = 2.0
CREATION_DATE  = 
ORIGINATOR     = 

OBJECT_NAME    = SL-16 R/B
OBJECT_ID      = 1994-077B
CENTER_NAME    = EARTH
REF_FRAME      = TEME
TIME_SYSTEM    = UTC
MEAN_ELEMENT_THEORY = SGP/SGP4

EPOCH          = 2026-02-06T00:55:58.422432
MEAN_MOTION    = 14.15556650
ECCENTRICITY   = .00044136
INCLINATION    = 70.9814
RA_OF_ASC_NODE = 59.0768
ARG_OF_PERICENTER = 238.9694
MEAN_ANOMALY   = 121.0996

EPHEMERIS_TYPE = 0
CLASSIFICATION_TYPE = U
NORAD_CAT_ID   = 23405
ELEMENT_SET_NO = 999
REV_AT_EPOCH   = 61175
BSTAR          = .11619917E-4
MEAN_MOTION_DOT = -.25E-6
MEAN_MOTION_DDOT = 0

CCSDS_OMM_VERS = 2.0
CREATION_DATE  = 
ORIGINATOR     = 

OBJECT_NAME    = ARIANE 40+ R/B
OBJECT_ID      = 1995-021B
CENTER_NAME    = EARTH
REF_FRAME      = TEME
TIME_SYSTEM    = UTC
MEAN_ELEMENT_THEORY = SGP/SGP4

EPOCH          = 2026-02-06T04:31:54.017760
MEAN_MOTION    = 14.39748937
ECCENTRICITY   = .00059254
INCLINATION    = 98.4562
RA_OF_ASC_NODE = 109.0880
ARG_OF_PERICENTER = 229.3307
MEAN_ANOMALY   = 154.3458

EPHEMERIS_TYPE = 0
CLASSIFICATION_TYPE = U
NORAD_CAT_ID   = 23561
ELEMENT_SET_NO = 999
REV_AT_EPOCH   = 61471
BSTAR          = .14444168E-3
MEAN_MOTION_DOT = .409E-5
MEAN_MOTION_DDOT = 0

CCSDS_OMM_VERS = 2.0
CREATION_DATE  = 
ORIGINATOR     = 

OBJECT_NAME    = SL-16 R/B
OBJECT_ID      = 1995-058B
CENTER_NAME    = EARTH
REF_FRAME      = TEME
TIME_SYSTEM    = UTC
MEAN_ELEMENT_THEORY = SGP/SGP4

EPOCH          = 2026-02-06T14:37:54.046848
MEAN_MOTION    = 14.15491182
ECCENTRICITY   = .00124069
INCLINATION    = 71.0188
RA_OF_ASC_NODE = 245.5068
ARG_OF_PERICENTER = 176.6561
MEAN_ANOMALY   = 183.4647

EPHEMERIS_TYPE = 0
CLASSIFICATION_TYPE = U
NORAD_CAT_ID   = 23705
ELEMENT_SET_NO = 999
REV_AT_EPOCH   = 56345
BSTAR          = .18196434E-3
MEAN_MOTION_DOT = .308E-5
MEAN_MOTION_DDOT = 0

CCSDS_OMM_VERS = 2.0
CREATION_DATE  = 
ORIGINATOR     = 

OBJECT_NAME    = SL-16 R/B
OBJECT_ID      = 1996-051B
CENTER_NAME    = EARTH
REF_FRAME      = TEME
TIME_SYSTEM    = UTC
MEAN_ELEMENT_THEORY = SGP/SGP4

EPOCH          = 2026-02-06T15:36:38.943072
MEAN_MOTION    = 14.12406746
ECCENTRICITY   = .00176834
INCLINATION    = 70.7565
RA_OF_ASC_NODE = 240.9383
ARG_OF_PERICENTER = 191.3503
MEAN_ANOMALY   = 168.7221

EPHEMERIS_TYPE = 0
CLASSIFICATION_TYPE = U
NORAD_CAT_ID   = 24298
ELEMENT_SET_NO = 999
REV_AT_EPOCH   = 51726
BSTAR          = .66486737E-4
MEAN_MOTION_DOT = .74E-6
MEAN_MOTION_DDOT = 0

CCSDS_OMM_VERS = 2.0
CREATION_DATE  = 
ORIGINATOR     = 

OBJECT_NAME    = ORBVIEW 2 (SEASTAR)
OBJECT_ID      = 1997-037A
CENTER_NAME    = EARTH
REF_FRAME      = TEME
TIME_SYSTEM    = UTC
MEAN_ELEMENT_THEORY = SGP/SGP4

EPOCH          = 2026-02-05T23:34:02.641728
MEAN_MOTION    = 14.35469739
ECCENTRICITY   = .00028325
INCLINATION    = 98.8511
RA_OF_ASC_NODE = 200.4637
ARG_OF_PERICENTER = 136.7634
MEAN_ANOMALY   = 223.3773

EPHEMERIS_TYPE = 0
CLASSIFICATION_TYPE = U
NORAD_CAT_ID   = 24883
ELEMENT_SET_NO = 999
REV_AT_EPOCH   = 50392
BSTAR          = .16051679E-3
MEAN_MOTION_DOT = .415E-5
MEAN_MOTION_DDOT = 0

